{"type": "FeatureCollection", "features": [ {"type": "Feature", "properties": {"norad_id": 67040, "name": "STARLINK-35786", "group": "last-30-days", "lat": 42.96589786337305, "lon": -172.74307919442805, "alt_km": 363.67196690224864, "timestamp": "2025-12-26T08:37:53.294190+00:00", "meta": {"OBJECT_NAME": "STARLINK-35786", "OBJECT_ID": "2025-294L", "EPOCH": "2025-12-26T04:00:01.998720", "MEAN_MOTION": 15.67150372, "ECCENTRICITY": 0.000146, "INCLINATION": 42.9997, "RA_OF_ASC_NODE": 100.147, "ARG_OF_PERICENTER": 279.8168, "MEAN_ANOMALY": 159.2792, "EPHEMERIS_TYPE": 0, "CLASSIFICATION_TYPE": "U", "NORAD_CAT_ID": 67040, "ELEMENT_SET_NO": 999, "REV_AT_EPOCH": 226, "BSTAR": -0.019912, "MEAN_MOTION_DOT": -0.01939379, "MEAN_MOTION_DDOT": 0}, "tle": {"line1": "1 67040U 25294L   25360.16668980 -.01939379  00000+0 -19912-1 0  9994", "line2": "2 67040  42.9997 100.1470 0001460 279.8168 159.2792 15.67150372  2266"}}, "geometry": {"type": "Point", "coordinates": [-172.74307919442805, 42.96589786337305]}}, {"type": "Feature", "properties": {"norad_id": 67041, "name": "STARLINK-35765", "group": "last-30-days", "lat": 42.91840010208048, "lon": -167.28996592479734, "alt_km": 363.76814303596257, "timestamp": "2025-12-26T08:37:53.294200+00:00", "meta": {"OBJECT_NAME": "STARLINK-35765", "OBJECT_ID": "2025-294M", "EPOCH": "2025-12-26T04:00:01.998720", "MEAN_MOTION": 15.67136021, "ECCENTRICITY": 0.0001496, "INCLINATION": 42.9997, "RA_OF_ASC_NODE": 100.137, "ARG_OF_PERICENTER": 276.6141, "MEAN_ANOMALY": 166.4875, "EPHEMERIS_TYPE": 0, "CLASSIFICATION_TYPE": "U", "NORAD_CAT_ID": 67041, "ELEMENT_SET_NO": 999, "REV_AT_EPOCH": 226, "BSTAR": -0.019927, "MEAN_MOTION_DOT": -0.01939723, "MEAN_MOTION_DDOT": 0}, "tle": {"line1": "1 67041U 25294M   25360.16668980 -.01939723  00000+0 -19927-1 0  9994", "line2": "2 67041  42.9997 100.1370 0001496 276.6141 166.4875 15.67136021  2268"}}, "geometry": {"type": "Point", "coordinates": [-167.28996592479734, 42.91840010208048]}}, {"type": "Feature", "properties": {"norad_id": 67042, "name": "STARLINK-35773", "group": "last-30-days", "lat": 42.79232167390891, "lon": -164.48110913047077, "alt_km": 363.8676200104883, "timestamp": "2025-12-26T08:37:53.294210+00:00", "meta": {"OBJECT_NAME": "STARLINK-35773", "OBJECT_ID": "2025-294N", "EPOCH": "2025-12-26T04:00:01.998720", "MEAN_MOTION": 15.67128217, "ECCENTRICITY": 0.0001584, "INCLINATION": 42.9998, "RA_OF_ASC_NODE": 100.1313, "ARG_OF_PERICENTER": 280.9825, "MEAN_ANOMALY": 164.1881, "EPHEMERIS_TYPE": 0, "CLASSIFICATION_TYPE": "U", "NORAD_CAT_ID": 67042, "ELEMENT_SET_NO": 999, "REV_AT_EPOCH": 246, "BSTAR": -0.019963, "MEAN_MOTION_DOT": -0.01942302, "MEAN_MOTION_DDOT": 0}, "tle": {"line1": "1 67042U 25294N   25360.16668980 -.01942302  00000+0 -19963-1 0  9992", "line2": "2 67042  42.9998 100.1313 0001584 280.9825 164.1881 15.67128217  2464"}}, "geometry": {"type": "Point", "coordinates": [-164.48110913047077, 42.79232167390891]}}, {"type": "Feature", "properties": {"norad_id": 67043, "name": "STARLINK-35901", "group": "last-30-days", "lat": 42.59824022746794, "lon": -161.69807757363046, "alt_km": 363.86564866481604, "timestamp": "2025-12-26T08:37:53.294221+00:00", "meta": {"OBJECT_NAME": "STARLINK-35901", "OBJECT_ID": "2025-294P", "EPOCH": "2025-12-26T04:00:01.998720", "MEAN_MOTION": 15.67119032, "ECCENTRICITY": 0.000149, "INCLINATION": 42.9995, "RA_OF_ASC_NODE": 100.1264, "ARG_OF_PERICENTER": 281.3298, "MEAN_ANOMALY": 165.9033, "EPHEMERIS_TYPE": 0, "CLASSIFICATION_TYPE": "U", "NORAD_CAT_ID": 67043, "ELEMENT_SET_NO": 999, "REV_AT_EPOCH": 246, "BSTAR": -0.019983, "MEAN_MOTION_DOT": -0.0194333, "MEAN_MOTION_DDOT": 0}, "tle": {"line1": "1 67043U 25294P   25360.16668980 -.01943330  00000+0 -19983-1 0  9997", "line2": "2 67043  42.9995 100.1264 0001490 281.3298 165.9033 15.67119032  2465"}}, "geometry": {"type": "Point", "coordinates": [-161.69807757363046, 42.59824022746794]}}, {"type": "Feature", "properties": {"norad_id": 67044, "name": "STARLINK-35884", "group": "last-30-days", "lat": 42.34175733514677, "lon": -158.9770917109124, "alt_km": 363.95537447870356, "timestamp": "2025-12-26T08:37:53.294233+00:00", "meta": {"OBJECT_NAME": "STARLINK-35884", "OBJECT_ID": "2025-294Q", "EPOCH": "2025-12-26T04:00:01.998720", "MEAN_MOTION": 15.67109364, "ECCENTRICITY": 0.0001521, "INCLINATION": 42.9995, "RA_OF_ASC_NODE": 100.1212, "ARG_OF_PERICENTER": 279.9509, "MEAN_ANOMALY": 169.3139, "EPHEMERIS_TYPE": 0, "CLASSIFICATION_TYPE": "U", "NORAD_CAT_ID": 67044, "ELEMENT_SET_NO": 999, "REV_AT_EPOCH": 246, "BSTAR": -0.019958, "MEAN_MOTION_DOT": -0.01940533, "MEAN_MOTION_DDOT": 0}, "tle": {"line1": "1 67044U 25294Q   25360.16668980 -.01940533  00000+0 -19958-1 0  9992", "line2": "2 67044  42.9995 100.1212 0001521 279.9509 169.3139 15.67109364  2464"}}, "geometry": {"type": "Point", "coordinates": [-158.9770917109124, 42.34175733514677]}}, {"type": "Feature", "properties": {"norad_id": 67045, "name": "STARLINK-35891", "group": "last-30-days", "lat": 41.989586244017346, "lon": -156.04109774603293, "alt_km": 364.0115719190553, "timestamp": "2025-12-26T08:37:53.294244+00:00", "meta": {"OBJECT_NAME": "STARLINK-35891", "OBJECT_ID": "2025-294R", "EPOCH": "2025-12-26T04:00:01.998720", "MEAN_MOTION": 15.67086279, "ECCENTRICITY": 0.0001433, "INCLINATION": 42.9995, "RA_OF_ASC_NODE": 100.1161, "ARG_OF_PERICENTER": 280.013, "MEAN_ANOMALY": 171.473, "EPHEMERIS_TYPE": 0, "CLASSIFICATION_TYPE": "U", "NORAD_CAT_ID": 67045, "ELEMENT_SET_NO": 999, "REV_AT_EPOCH": 238, "BSTAR": -0.019933, "MEAN_MOTION_DOT": -0.0193671, "MEAN_MOTION_DDOT": 0}, "tle": {"line1": "1 67045U 25294R   25360.16668980 -.01936710  00000+0 -19933-1 0  9998", "line2": "2 67045  42.9995 100.1161 0001433 280.0130 171.4730 15.67086279  2384"}}, "geometry": {"type": "Point", "coordinates": [-156.04109774603293, 41.989586244017346]}}, {"type": "Feature", "properties": {"norad_id": 67046, "name": "STARLINK-35721", "group": "last-30-days", "lat": 41.585363736073276, "lon": -153.27950792936247, "alt_km": 364.0556450721797, "timestamp": "2025-12-26T08:37:53.294258+00:00", "meta": {"OBJECT_NAME": "STARLINK-35721", "OBJECT_ID": "2025-294S", "EPOCH": "2025-12-26T04:00:01.998720", "MEAN_MOTION": 15.67068101, "ECCENTRICITY": 0.0001344, "INCLINATION": 42.9995, "RA_OF_ASC_NODE": 100.1109, "ARG_OF_PERICENTER": 278.8008, "MEAN_ANOMALY": 174.7971, "EPHEMERIS_TYPE": 0, "CLASSIFICATION_TYPE": "U", "NORAD_CAT_ID": 67046, "ELEMENT_SET_NO": 999, "REV_AT_EPOCH": 246, "BSTAR": -0.019879, "MEAN_MOTION_DOT": -0.01930712, "MEAN_MOTION_DDOT": 0}, "tle": {"line1": "1 67046U 25294S   25360.16668980 -.01930712  00000+0 -19879-1 0  9994", "line2": "2 67046  42.9995 100.1109 0001344 278.8008 174.7971 15.67068101  2463"}}, "geometry": {"type": "Point", "coordinates": [-153.27950792936247, 41.585363736073276]}}, {"type": "Feature", "properties": {"norad_id": 67047, "name": "STARLINK-35779", "group": "last-30-days", "lat": 41.089591042569715, "lon": -150.41554900228547, "alt_km": 364.32094679508464, "timestamp": "2025-12-26T08:37:53.294268+00:00", "meta": {"OBJECT_NAME": "STARLINK-35779", "OBJECT_ID": "2025-294T", "EPOCH": "2025-12-26T04:00:01.998720", "MEAN_MOTION": 15.6705557, "ECCENTRICITY": 0.0001536, "INCLINATION": 42.9994, "RA_OF_ASC_NODE": 100.1054, "ARG_OF_PERICENTER": 280.982, "MEAN_ANOMALY": 174.8348, "EPHEMERIS_TYPE": 0, "CLASSIFICATION_TYPE": "U", "NORAD_CAT_ID": 67047, "ELEMENT_SET_NO": 999, "REV_AT_EPOCH": 226, "BSTAR": -0.02006, "MEAN_MOTION_DOT": -0.01945468, "MEAN_MOTION_DDOT": 0}, "tle": {"line1": "1 67047U 25294T   25360.16668980 -.01945468  00000+0 -20060-1 0  9993", "line2": "2 67047  42.9994 100.1054 0001536 280.9820 174.8348 15.67055570  2264"}}, "geometry": {"type": "Point", "coordinates": [-150.41554900228547, 41.089591042569715]}}, {"type": "Feature", "properties": {"norad_id": 67048, "name": "STARLINK-35905", "group": "last-30-days", "lat": 40.59453832392478, "lon": -147.92927327756516, "alt_km": 364.3582124348068, "timestamp": "2025-12-26T08:37:53.294278+00:00", "meta": {"OBJECT_NAME": "STARLINK-35905", "OBJECT_ID": "2025-294U", "EPOCH": "2025-12-26T04:00:01.998720", "MEAN_MOTION": 15.67053615, "ECCENTRICITY": 0.0001473, "INCLINATION": 42.9995, "RA_OF_ASC_NODE": 100.1001, "ARG_OF_PERICENTER": 280.6249, "MEAN_ANOMALY": 177.1402, "EPHEMERIS_TYPE": 0, "CLASSIFICATION_TYPE": "U", "NORAD_CAT_ID": 67048, "ELEMENT_SET_NO": 999, "REV_AT_EPOCH": 238, "BSTAR": -0.020068, "MEAN_MOTION_DOT": -0.01945991, "MEAN_MOTION_DDOT": 0}, "tle": {"line1": "1 67048U 25294U   25360.16668980 -.01945991  00000+0 -20068-1 0  9993", "line2": "2 67048  42.9995 100.1001 0001473 280.6249 177.1402 15.67053615  2388"}}, "geometry": {"type": "Point", "coordinates": [-147.92927327756516, 40.59453832392478]}}, {"type": "Feature", "properties": {"norad_id": 67049, "name": "STARLINK-35877", "group": "last-30-days", "lat": 39.984104349286575, "lon": -145.21695323559968, "alt_km": 364.4464467259695, "timestamp": "2025-12-26T08:37:53.294288+00:00", "meta": {"OBJECT_NAME": "STARLINK-35877", "OBJECT_ID": "2025-294V", "EPOCH": "2025-12-26T04:00:01.998720", "MEAN_MOTION": 15.6702985, "ECCENTRICITY": 0.0001382, "INCLINATION": 42.9997, "RA_OF_ASC_NODE": 100.0947, "ARG_OF_PERICENTER": 281.9147, "MEAN_ANOMALY": 178.0237, "EPHEMERIS_TYPE": 0, "CLASSIFICATION_TYPE": "U", "NORAD_CAT_ID": 67049, "ELEMENT_SET_NO": 999, "REV_AT_EPOCH": 246, "BSTAR": -0.019989, "MEAN_MOTION_DOT": -0.01937499, "MEAN_MOTION_DDOT": 0}, "tle": {"line1": "1 67049U 25294V   25360.16668980 -.01937499  00000+0 -19989-1 0  9998", "line2": "2 67049  42.9997 100.0947 0001382 281.9147 178.0237 15.67029850  2468"}}, "geometry": {"type": "Point", "coordinates": [-145.21695323559968, 39.984104349286575]}}]}